{
  "type": "FeatureCollection",
  "features": [
    {
      "type": "Feature",
      "properties": {
        "norad_id": 41890,
        "name": "CYGFM07",
        "group": "weather",
        "lat": -6.528201296264617,
        "lon": 8.75479806345155,
        "alt_km": 420.3700037408198,
        "timestamp": "2025-12-13T05:42:57.139645+00:00",
        "meta_object_name": "CYGFM07",
        "meta_object_id": "2016-078G",
        "meta_epoch": "2025-12-12T05:01:57.998784",
        "meta_mean_motion": 15.4996816,
        "meta_eccentricity": 0.00098228,
        "meta_inclination": 34.9485,
        "meta_ra_of_asc_node": 24.9286,
        "meta_arg_of_pericenter": 211.5002,
        "meta_mean_anomaly": 148.5132,
        "meta_ephemeris_type": 0,
        "meta_classification_type": "U",
        "meta_norad_cat_id": 41890,
        "meta_element_set_no": 999,
        "meta_rev_at_epoch": 49987,
        "meta_bstar": 0.00052255047,
        "meta_mean_motion_dot": 0.000303,
        "meta_mean_motion_ddot": 0,
        "tle_line1": "1 41890U 16078G   25346.20969906  .00030300  00000+0  52255-3 0  9992",
        "tle_line2": "2 41890  34.9485  24.9286 0009822 211.5002 148.5132 15.49968160499870"
      },
      "geometry": {
        "type": "Point",
        "coordinates": [
          8.75479806345155,
          -6.528201296264617
        ]
      }
    },
    {
      "type": "Feature",
      "properties": {
        "norad_id": 41891,
        "name": "CYGFM03",
        "group": "weather",
        "lat": -1.7678514498038964,
        "lon": -157.36214789825948,
        "alt_km": 410.4177643571784,
        "timestamp": "2025-12-13T05:42:57.139658+00:00",
        "meta_object_name": "CYGFM03",
        "meta_object_id": "2016-078H",
        "meta_epoch": "2025-12-12T05:44:30.487200",
        "meta_mean_motion": 15.49868504,
        "meta_eccentricity": 0.00092421,
        "meta_inclination": 34.9437,
        "meta_ra_of_asc_node": 26.6529,
        "meta_arg_of_pericenter": 199.483,
        "meta_mean_anomaly": 160.5539,
        "meta_ephemeris_type": 0,
        "meta_classification_type": "U",
        "meta_norad_cat_id": 41891,
        "meta_element_set_no": 999,
        "meta_rev_at_epoch": 49985,
        "meta_bstar": 0.00051609525,
        "meta_mean_motion_dot": 0.00029811,
        "meta_mean_motion_ddot": 0,
        "tle_line1": "1 41891U 16078H   25346.23924175  .00029811  00000+0  51610-3 0  9994",
        "tle_line2": "2 41891  34.9437  26.6529 0009242 199.4830 160.5539 15.49868504499850"
      },
      "geometry": {
        "type": "Point",
        "coordinates": [
          -157.36214789825948,
          -1.7678514498038964
        ]
      }
    },
    {
      "type": "Feature",
      "properties": {
        "norad_id": 43010,
        "name": "FENGYUN 3D",
        "group": "weather",
        "lat": 32.96554710975995,
        "lon": -52.3369357048541,
        "alt_km": 824.9051236638734,
        "timestamp": "2025-12-13T05:42:57.139672+00:00",
        "meta_object_name": "FENGYUN 3D",
        "meta_object_id": "2017-072A",
        "meta_epoch": "2025-12-12T07:34:11.684928",
        "meta_mean_motion": 14.19685104,
        "meta_eccentricity": 9.213e-05,
        "meta_inclination": 98.9895,
        "meta_ra_of_asc_node": 312.6192,
        "meta_arg_of_pericenter": 183.6817,
        "meta_mean_anomaly": 176.4352,
        "meta_ephemeris_type": 0,
        "meta_classification_type": "U",
        "meta_norad_cat_id": 43010,
        "meta_element_set_no": 999,
        "meta_rev_at_epoch": 41847,
        "meta_bstar": 0.00027986419,
        "meta_mean_motion_dot": 5.46e-06,
        "meta_mean_motion_ddot": 0,
        "tle_line1": "1 43010U 17072A   25346.31541302  .00000546  00000+0  27986-3 0  9993",
        "tle_line2": "2 43010  98.9895 312.6192 0000921 183.6817 176.4352 14.19685104418479"
      },
      "geometry": {
        "type": "Point",
        "coordinates": [
          -52.3369357048541,
          32.96554710975995
        ]
      }
    },
    {
      "type": "Feature",
      "properties": {
        "norad_id": 43013,
        "name": "NOAA 20 (JPSS-1)",
        "group": "weather",
        "lat": -5.6391881352028195,
        "lon": 102.65687864484126,
        "alt_km": 830.8587607472564,
        "timestamp": "2025-12-13T05:42:57.139686+00:00",
        "meta_object_name": "NOAA 20 (JPSS-1)",
        "meta_object_id": "2017-073A",
        "meta_epoch": "2025-12-12T06:51:10.908288",
        "meta_mean_motion": 14.19525553,
        "meta_eccentricity": 0.00021615,
        "meta_inclination": 98.7598,
        "meta_ra_of_asc_node": 282.5872,
        "meta_arg_of_pericenter": 87.7885,
        "meta_mean_anomaly": 272.3538,
        "meta_ephemeris_type": 0,
        "meta_classification_type": "U",
        "meta_norad_cat_id": 43013,
        "meta_element_set_no": 999,
        "meta_rev_at_epoch": 41795,
        "meta_bstar": 0.00010155491,
        "meta_mean_motion_dot": 1.7e-06,
        "meta_mean_motion_ddot": 0,
        "tle_line1": "1 43013U 17073A   25346.28554292  .00000170  00000+0  10155-3 0  9998",
        "tle_line2": "2 43013  98.7598 282.5872 0002161  87.7885 272.3538 14.19525553417952"
      },
      "geometry": {
        "type": "Point",
        "coordinates": [
          102.65687864484126,
          -5.6391881352028195
        ]
      }
    },
    {
      "type": "Feature",
      "properties": {
        "norad_id": 43226,
        "name": "GOES 17",
        "group": "weather",
        "lat": -0.06611579220016738,
        "lon": 78.42160388668464,
        "alt_km": 35799.43206193712,
        "timestamp": "2025-12-13T05:42:57.139711+00:00",
        "meta_object_name": "GOES 17",
        "meta_object_id": "2018-022A",
        "meta_epoch": "2025-12-11T23:21:28.018944",
        "meta_mean_motion": 1.00271668,
        "meta_eccentricity": 0.0003289,
        "meta_inclination": 0.4581,
        "meta_ra_of_asc_node": 89.1115,
        "meta_arg_of_pericenter": 187.3128,
        "meta_mean_anomaly": 65.3748,
        "meta_ephemeris_type": 0,
        "meta_classification_type": "U",
        "meta_norad_cat_id": 43226,
        "meta_element_set_no": 999,
        "meta_rev_at_epoch": 2854,
        "meta_bstar": 0,
        "meta_mean_motion_dot": -1.74e-06,
        "meta_mean_motion_ddot": 0,
        "tle_line1": "1 43226U 18022A   25345.97324096 -.00000174  00000+0  00000+0 0  9990",
        "tle_line2": "2 43226   0.4581  89.1115 0003289 187.3128  65.3748  1.00271668 28547"
      },
      "geometry": {
        "type": "Point",
        "coordinates": [
          78.42160388668464,
          -0.06611579220016738
        ]
      }
    },
    {
      "type": "Feature",
      "properties": {
        "norad_id": 43491,
        "name": "FENGYUN 2H",
        "group": "weather",
        "lat": 0.6001567274828772,
        "lon": -112.72221424071977,
        "alt_km": 35774.061942529086,
        "timestamp": "2025-12-13T05:42:57.139729+00:00",
        "meta_object_name": "FENGYUN 2H",
        "meta_object_id": "2018-050A",
        "meta_epoch": "2025-12-12T01:52:23.750688",
        "meta_mean_motion": 1.00271159,
        "meta_eccentricity": 0.00028701,
        "meta_inclination": 2.5495,
        "meta_ra_of_asc_node": 81.3354,
        "meta_arg_of_pericenter": 166.252,
        "meta_mean_anomaly": 300.9008,
        "meta_ephemeris_type": 0,
        "meta_classification_type": "U",
        "meta_norad_cat_id": 43491,
        "meta_element_set_no": 999,
        "meta_rev_at_epoch": 2756,
        "meta_bstar": 0,
        "meta_mean_motion_dot": -1.21e-06,
        "meta_mean_motion_ddot": 0,
        "tle_line1": "1 43491U 18050A   25346.07805267 -.00000121  00000+0  00000+0 0  9993",
        "tle_line2": "2 43491   2.5495  81.3354 0002870 166.2520 300.9008  1.00271159 27567"
      },
      "geometry": {
        "type": "Point",
        "coordinates": [
          -112.72221424071977,
          0.6001567274828772
        ]
      }
    },
    {
      "type": "Feature",
      "properties": {
        "norad_id": 43689,
        "name": "METOP-C",
        "group": "weather",
        "lat": -29.658202361968144,
        "lon": 49.99812837371786,
        "alt_km": 825.8477732296597,
        "timestamp": "2025-12-13T05:42:57.139744+00:00",
        "meta_object_name": "METOP-C",
        "meta_object_id": "2018-087A",
        "meta_epoch": "2025-12-12T06:12:22.502592",
        "meta_mean_motion": 14.21484249,
        "meta_eccentricity": 0.00012588,
        "meta_inclination": 98.6932,
        "meta_ra_of_asc_node": 44.0357,
        "meta_arg_of_pericenter": 39.5257,
        "meta_mean_anomaly": 320.6012,
        "meta_ephemeris_type": 0,
        "meta_classification_type": "U",
        "meta_norad_cat_id": 43689,
        "meta_element_set_no": 999,
        "meta_rev_at_epoch": 36827,
        "meta_bstar": 0.00016561946,
        "meta_mean_motion_dot": 3.19e-06,
        "meta_mean_motion_ddot": 0,
        "tle_line1": "1 43689U 18087A   25346.25859378  .00000319  00000+0  16562-3 0  9996",
        "tle_line2": "2 43689  98.6932  44.0357 0001258  39.5257 320.6012 14.21484249368278"
      },
      "geometry": {
        "type": "Point",
        "coordinates": [
          49.99812837371786,
          -29.658202361968144
        ]
      }
    }
  ]
}